SL-14 R/B               
1 18749U 88001B   25330.13989485  .00000628  00000+0  69968-4 0  9993
2 18749  82.5117 292.7621 0017036 216.8605 143.1442 14.85396914 26657
COSMOS 1933             
1 18958U 88020A   25330.13063759  .00004814  00000+0  24276-3 0  9996
2 18958  82.5141 353.2883 0004312 177.9639 182.1613 15.16917719 34521
SL-3 R/B                
1 19046U 88032B   25330.19093787  .00006101  00000+0  29675-3 0  9997
2 19046  97.5071 309.0303 0025117 232.3876 127.5078 15.18496448 36397
SL-16 R/B               
1 19120U 88039B   25330.18798111  .00000034  00000+0  38650-4 0  9992
2 19120  71.0146 287.3950 0020353 143.9582 216.2920 14.19592740943698
COSMOS 1953             
1 19210U 88050A   25330.18855104  .00007042  00000+0  26669-3 0  9993
2 19210  82.5088 262.1843 0013516 121.7525 238.5032 15.26652679 21983
SL-8 R/B                
1 19257U 88053B   25330.19147508  .00000269  00000+0  95867-4 0  9991
2 19257  74.0470 303.2192 0019468 153.0825 218.0632 14.38844187961714
COSMOS 1975             
1 19573U 88093A   25330.12849231  .00010709  00000+0  41312-3 0  9996
2 19573  82.5208 221.4515 0011476 165.4510 194.7061 15.26109271  3604
SL-14 R/B               
1 19574U 88093B   25330.01381933  .00000595  00000+0  65867-4 0  9999
2 19574  82.5291 139.3637 0021366  25.0964  93.2929 14.85522600985640
SL-16 R/B               
1 19650U 88102B   25330.14157981  .00000218  00000+0  13430-3 0  9993
2 19650  71.0010   9.3684 0013916 178.2038 181.9137 14.16135875912239
INTERCOSMOS 24          
1 20261U 89080A   25329.98000956  .00001002  00000+0  29088-3 0  9996
2 20261  82.6051 171.8504 1188544 173.3907 188.4595 12.59396954653740
SL-14 R/B               
1 20262U 89080C   25330.18273993  .00000509  00000+0  14514-3 0  9993
2 20262  82.5941 239.6459 1230940  61.4189 310.5179 12.50393625647211
DELTA 1 R/B             
1 20323U 89089B   25330.15346190  .00000443  00000+0  11806-3 0  9995
2 20323  97.0765 189.0186 0070733  89.7234 271.2069 14.50552216880725
