CCSDS_OMM_VERS = 2.0
CREATION_DATE  = 
ORIGINATOR     = 

OBJECT_NAME    = SL-14 R/B
OBJECT_ID      = 1988-001B
CENTER_NAME    = EARTH
REF_FRAME      = TEME
TIME_SYSTEM    = UTC
MEAN_ELEMENT_THEORY = SGP/SGP4

EPOCH          = 2025-11-26T03:21:26.915040
MEAN_MOTION    = 14.85396914
ECCENTRICITY   = .0017036
INCLINATION    = 82.5117
RA_OF_ASC_NODE = 292.7621
ARG_OF_PERICENTER = 216.8605
MEAN_ANOMALY   = 143.1442

EPHEMERIS_TYPE = 0
CLASSIFICATION_TYPE = U
NORAD_CAT_ID   = 18749
ELEMENT_SET_NO = 999
REV_AT_EPOCH   = 2665
BSTAR          = .69968E-4
MEAN_MOTION_DOT = .628E-5
MEAN_MOTION_DDOT = 0

CCSDS_OMM_VERS = 2.0
CREATION_DATE  = 
ORIGINATOR     = 

OBJECT_NAME    = COSMOS 1933
OBJECT_ID      = 1988-020A
CENTER_NAME    = EARTH
REF_FRAME      = TEME
TIME_SYSTEM    = UTC
MEAN_ELEMENT_THEORY = SGP/SGP4

EPOCH          = 2025-11-26T03:08:07.087776
MEAN_MOTION    = 15.16917719
ECCENTRICITY   = .0004312
INCLINATION    = 82.5141
RA_OF_ASC_NODE = 353.2883
ARG_OF_PERICENTER = 177.9639
MEAN_ANOMALY   = 182.1613

EPHEMERIS_TYPE = 0
CLASSIFICATION_TYPE = U
NORAD_CAT_ID   = 18958
ELEMENT_SET_NO = 999
REV_AT_EPOCH   = 3452
BSTAR          = .24276E-3
MEAN_MOTION_DOT = .4814E-4
MEAN_MOTION_DDOT = 0

CCSDS_OMM_VERS = 2.0
CREATION_DATE  = 
ORIGINATOR     = 

OBJECT_NAME    = SL-3 R/B
OBJECT_ID      = 1988-032B
CENTER_NAME    = EARTH
REF_FRAME      = TEME
TIME_SYSTEM    = UTC
MEAN_ELEMENT_THEORY = SGP/SGP4

EPOCH          = 2025-11-26T04:34:57.031968
MEAN_MOTION    = 15.18496448
ECCENTRICITY   = .0025117
INCLINATION    = 97.5071
RA_OF_ASC_NODE = 309.0303
ARG_OF_PERICENTER = 232.3876
MEAN_ANOMALY   = 127.5078

EPHEMERIS_TYPE = 0
CLASSIFICATION_TYPE = U
NORAD_CAT_ID   = 19046
ELEMENT_SET_NO = 999
REV_AT_EPOCH   = 3639
BSTAR          = .29675E-3
MEAN_MOTION_DOT = .6101E-4
MEAN_MOTION_DDOT = 0

CCSDS_OMM_VERS = 2.0
CREATION_DATE  = 
ORIGINATOR     = 

OBJECT_NAME    = SL-16 R/B
OBJECT_ID      = 1988-039B
CENTER_NAME    = EARTH
REF_FRAME      = TEME
TIME_SYSTEM    = UTC
MEAN_ELEMENT_THEORY = SGP/SGP4

EPOCH          = 2025-11-26T04:30:41.567904
MEAN_MOTION    = 14.19592740
ECCENTRICITY   = .0020353
INCLINATION    = 71.0146
RA_OF_ASC_NODE = 287.3950
ARG_OF_PERICENTER = 143.9582
MEAN_ANOMALY   = 216.2920

EPHEMERIS_TYPE = 0
CLASSIFICATION_TYPE = U
NORAD_CAT_ID   = 19120
ELEMENT_SET_NO = 999
REV_AT_EPOCH   = 94369
BSTAR          = .3865E-4
MEAN_MOTION_DOT = .34E-6
MEAN_MOTION_DDOT = 0

CCSDS_OMM_VERS = 2.0
CREATION_DATE  = 
ORIGINATOR     = 

OBJECT_NAME    = COSMOS 1953
OBJECT_ID      = 1988-050A
CENTER_NAME    = EARTH
REF_FRAME      = TEME
TIME_SYSTEM    = UTC
MEAN_ELEMENT_THEORY = SGP/SGP4

EPOCH          = 2025-11-26T04:31:30.809856
MEAN_MOTION    = 15.26652679
ECCENTRICITY   = .0013516
INCLINATION    = 82.5088
RA_OF_ASC_NODE = 262.1843
ARG_OF_PERICENTER = 121.7525
MEAN_ANOMALY   = 238.5032

EPHEMERIS_TYPE = 0
CLASSIFICATION_TYPE = U
NORAD_CAT_ID   = 19210
ELEMENT_SET_NO = 999
REV_AT_EPOCH   = 2198
BSTAR          = .26669E-3
MEAN_MOTION_DOT = .7042E-4
MEAN_MOTION_DDOT = 0

CCSDS_OMM_VERS = 2.0
CREATION_DATE  = 
ORIGINATOR     = 

OBJECT_NAME    = SL-8 R/B
OBJECT_ID      = 1988-053B
CENTER_NAME    = EARTH
REF_FRAME      = TEME
TIME_SYSTEM    = UTC
MEAN_ELEMENT_THEORY = SGP/SGP4

EPOCH          = 2025-11-26T04:35:43.446912
MEAN_MOTION    = 14.38844187
ECCENTRICITY   = .0019468
INCLINATION    = 74.0470
RA_OF_ASC_NODE = 303.2192
ARG_OF_PERICENTER = 153.0825
MEAN_ANOMALY   = 218.0632

EPHEMERIS_TYPE = 0
CLASSIFICATION_TYPE = U
NORAD_CAT_ID   = 19257
ELEMENT_SET_NO = 999
REV_AT_EPOCH   = 96171
BSTAR          = .95867E-4
MEAN_MOTION_DOT = .269E-5
MEAN_MOTION_DDOT = 0

CCSDS_OMM_VERS = 2.0
CREATION_DATE  = 
ORIGINATOR     = 

OBJECT_NAME    = COSMOS 1975
OBJECT_ID      = 1988-093A
CENTER_NAME    = EARTH
REF_FRAME      = TEME
TIME_SYSTEM    = UTC
MEAN_ELEMENT_THEORY = SGP/SGP4

EPOCH          = 2025-11-26T03:05:01.735584
MEAN_MOTION    = 15.26109271
ECCENTRICITY   = .0011476
INCLINATION    = 82.5208
RA_OF_ASC_NODE = 221.4515
ARG_OF_PERICENTER = 165.4510
MEAN_ANOMALY   = 194.7061

EPHEMERIS_TYPE = 0
CLASSIFICATION_TYPE = U
NORAD_CAT_ID   = 19573
ELEMENT_SET_NO = 999
REV_AT_EPOCH   = 360
BSTAR          = .41312E-3
MEAN_MOTION_DOT = .10709E-3
MEAN_MOTION_DDOT = 0

CCSDS_OMM_VERS = 2.0
CREATION_DATE  = 
ORIGINATOR     = 

OBJECT_NAME    = SL-14 R/B
OBJECT_ID      = 1988-093B
CENTER_NAME    = EARTH
REF_FRAME      = TEME
TIME_SYSTEM    = UTC
MEAN_ELEMENT_THEORY = SGP/SGP4

EPOCH          = 2025-11-26T00:19:53.990112
MEAN_MOTION    = 14.85522600
ECCENTRICITY   = .00213663
INCLINATION    = 82.5291
RA_OF_ASC_NODE = 139.3637
ARG_OF_PERICENTER = 25.0964
MEAN_ANOMALY   = 93.2929

EPHEMERIS_TYPE = 0
CLASSIFICATION_TYPE = U
NORAD_CAT_ID   = 19574
ELEMENT_SET_NO = 999
REV_AT_EPOCH   = 98564
BSTAR          = .65867416E-4
MEAN_MOTION_DOT = .595E-5
MEAN_MOTION_DDOT = 0

CCSDS_OMM_VERS = 2.0
CREATION_DATE  = 
ORIGINATOR     = 

OBJECT_NAME    = SL-16 R/B
OBJECT_ID      = 1988-102B
CENTER_NAME    = EARTH
REF_FRAME      = TEME
TIME_SYSTEM    = UTC
MEAN_ELEMENT_THEORY = SGP/SGP4

EPOCH          = 2025-11-26T03:23:52.495584
MEAN_MOTION    = 14.16135875
ECCENTRICITY   = .0013916
INCLINATION    = 71.0010
RA_OF_ASC_NODE = 9.3684
ARG_OF_PERICENTER = 178.2038
MEAN_ANOMALY   = 181.9137

EPHEMERIS_TYPE = 0
CLASSIFICATION_TYPE = U
NORAD_CAT_ID   = 19650
ELEMENT_SET_NO = 999
REV_AT_EPOCH   = 91223
BSTAR          = .1343E-3
MEAN_MOTION_DOT = .218E-5
MEAN_MOTION_DDOT = 0

CCSDS_OMM_VERS = 2.0
CREATION_DATE  = 
ORIGINATOR     = 

OBJECT_NAME    = INTERCOSMOS 24
OBJECT_ID      = 1989-080A
CENTER_NAME    = EARTH
REF_FRAME      = TEME
TIME_SYSTEM    = UTC
MEAN_ELEMENT_THEORY = SGP/SGP4

EPOCH          = 2025-11-25T23:31:12.826848
MEAN_MOTION    = 12.59396954
ECCENTRICITY   = .1188544
INCLINATION    = 82.6051
RA_OF_ASC_NODE = 171.8504
ARG_OF_PERICENTER = 173.3907
MEAN_ANOMALY   = 188.4595

EPHEMERIS_TYPE = 0
CLASSIFICATION_TYPE = U
NORAD_CAT_ID   = 20261
ELEMENT_SET_NO = 999
REV_AT_EPOCH   = 65374
BSTAR          = .29088005E-3
MEAN_MOTION_DOT = .1002E-4
MEAN_MOTION_DDOT = 0

CCSDS_OMM_VERS = 2.0
CREATION_DATE  = 
ORIGINATOR     = 

OBJECT_NAME    = SL-14 R/B
OBJECT_ID      = 1989-080C
CENTER_NAME    = EARTH
REF_FRAME      = TEME
TIME_SYSTEM    = UTC
MEAN_ELEMENT_THEORY = SGP/SGP4

EPOCH          = 2025-11-26T04:23:08.729952
MEAN_MOTION    = 12.50393625
ECCENTRICITY   = .123094
INCLINATION    = 82.5941
RA_OF_ASC_NODE = 239.6459
ARG_OF_PERICENTER = 61.4189
MEAN_ANOMALY   = 310.5179

EPHEMERIS_TYPE = 0
CLASSIFICATION_TYPE = U
NORAD_CAT_ID   = 20262
ELEMENT_SET_NO = 999
REV_AT_EPOCH   = 64721
BSTAR          = .14514E-3
MEAN_MOTION_DOT = .509E-5
MEAN_MOTION_DDOT = 0

CCSDS_OMM_VERS = 2.0
CREATION_DATE  = 
ORIGINATOR     = 

OBJECT_NAME    = DELTA 1 R/B
OBJECT_ID      = 1989-089B
CENTER_NAME    = EARTH
REF_FRAME      = TEME
TIME_SYSTEM    = UTC
MEAN_ELEMENT_THEORY = SGP/SGP4

EPOCH          = 2025-11-26T03:40:59.108160
MEAN_MOTION    = 14.50552216
ECCENTRICITY   = .0070733
INCLINATION    = 97.0765
RA_OF_ASC_NODE = 189.0186
ARG_OF_PERICENTER = 89.7234
MEAN_ANOMALY   = 271.2069

EPHEMERIS_TYPE = 0
CLASSIFICATION_TYPE = U
NORAD_CAT_ID   = 20323
ELEMENT_SET_NO = 999
REV_AT_EPOCH   = 88072
BSTAR          = .11806E-3
MEAN_MOTION_DOT = .443E-5
MEAN_MOTION_DDOT = 0

